ONEWEB-0258             
1 48976U 21060K   25066.17903062  .00000070  00000+0  14954-3 0  9992
2 48976  87.9108 321.8843 0001704  76.2323 283.8997 13.16596019178141
ONEWEB-0259             
1 48977U 21060L   25066.78066909  .00000027  00000+0  38231-4 0  9997
2 48977  87.9107 321.7492 0001826  72.1464 287.9866 13.16595381179542
ONEWEB-0260             
1 48978U 21060M   25066.77196536  .00000082  00000+0  18007-3 0  9996
2 48978  87.9107 321.7808 0001863  96.5359 263.5984 13.16596032179510
ONEWEB-0261             
1 48979U 21060N   25066.74187377 -.00000072  00000+0 -22178-3 0  9992
2 48979  87.9107 321.7872 0002249  83.1967 276.9420 13.16597148179587
ONEWEB-0262             
1 48980U 21060P   25066.72208206 -.00000020  00000+0 -86453-4 0  9997
2 48980  87.9107 321.7475 0001830  69.5855 290.5472 13.16597218179540
ONEWEB-0263             
1 48981U 21060Q   25066.22176868  .00000113  00000+0  26115-3 0  9990
2 48981  87.9108 321.8717 0002133  75.9840 284.1528 13.16594966178147
ONEWEB-0264             
1 48982U 21060R   25066.41097940  .00000010  00000+0 -81897-5 0  9992
2 48982  87.9110 321.8431 0001791  79.2198 280.9135 13.16596234178177
ONEWEB-0266             
1 48984U 21060T   25066.73632672 -.00000037  00000+0 -13161-3 0  9993
2 48984  87.9105 321.7495 0001637  73.4884 286.6427 13.16596589179507
